INTERCOSMOS 24          
1 20261U 89080A   25167.57154643  .00001087  00000+0  31766-3 0  9993
2 20261  82.6055 277.4461 1190320 190.0494 167.4746 12.59033766633305
SL-14 R/B               
1 20262U 89080C   25167.42491126  .00000338  00000+0  92388-4 0  9994
2 20262  82.5940 344.1632 1231724  73.3562 299.8904 12.50308246626872
DELTA 1 R/B             
1 20323U 89089B   25167.14097104  .00000261  00000+0  73904-4 0  9996
2 20323  97.1046  51.5864 0067793 243.9890 115.4316 14.50398486857093
ARIANE 40 R/B           
1 20443U 90005H   25167.08441295  .00000265  00000+0  98319-4 0  9997
2 20443  98.3458 230.0913 0008873 288.7846  71.2380 14.39640496854441
DELTA 2 R/B(1)          
1 20453U 90008B   25167.47824107  .00025460  00000+0  57405-3 0  9995
2 20453  35.6097  85.9014 0139889 355.0568   4.8776 15.32589021885013
COSMOS 2058             
1 20465U 90010A   25167.58490938  .00002892  00000+0  18162-3 0  9995
2 20465  82.4765 308.9156 0010190 168.4449 191.7016 15.08883083902088
SL-14 R/B               
1 20466U 90010B   25167.37846479  .00000393  00000+0  44928-4 0  9992
2 20466  82.5016 157.4395 0021538  97.0749 263.2916 14.83260951889004
SL-14 R/B               
1 20511U 90018B   25167.54592219  .00000399  00000+0  47497-4 0  9990
2 20511  82.5212 111.8114 0014945 245.8869 114.0782 14.81847457883161
HST                     
1 20580U 90037B   25167.06433468  .00005250  00000+0  19430-3 0  9990
2 20580  28.4692  52.5255 0002627  78.7319 281.3570 15.25316053732519
SL-16 R/B               
1 20625U 90046B   25167.60863950  .00000011  00000+0  30442-4 0  9990
2 20625  70.9972 136.7066 0014699 340.5797  19.4763 14.14962716810756
COSMOS 2084             
1 20663U 90055A   25167.41404990  .00001758  00000+0  13754-3 0  9991
2 20663  62.7886 162.3053 0061057 154.4341 205.9800 15.03686582896255
SL-6 R/B(2)             
1 20666U 90055D   25167.46814221  .00001634  00000+0  13816-3 0  9993
2 20666  62.7833  77.9777 0026613 191.2965 168.7539 15.02033768898184
SL-8 R/B                
1 20775U 90078B   25167.41199835  .00010572  00000+0  35073-3 0  9991
2 20775  82.9080 128.6587 0401971 182.1036 177.8513 14.78354285769821
SL-8 R/B                
1 21088U 91006B   25167.28555444  .00000118  00000+0  10276-3 0  9991
2 21088  82.9425   8.2269 0023760  63.0430 110.3023 13.77457783727392
OKEAN-3                 
1 21397U 91039A   25167.43427429  .00001736  00000+0  12746-3 0  9999
2 21397  82.5169 234.3598 0015795 151.5751 208.6339 15.02777743825022
COSMOS 2151             
1 21422U 91042A   25167.48316097  .00001620  00000+0  13193-3 0  9994
2 21422  82.4969 340.1291 0011309 235.5184 124.4971 14.98849590823304
SL-14 R/B               
1 21423U 91042B   25167.54427963  .00000422  00000+0  50679-4 0  9997
2 21423  82.4930 109.7241 0018141  39.8034 320.4507 14.81545971813666
ERS-1                   
1 21574U 91050A   25167.30690411  .00000208  00000+0  81876-4 0  9992
2 21574  98.7911 173.8082 0030845 272.5344  87.2312 14.39199054777416
ARIANE 40 R/B           
1 21610U 91050F   25167.43602001  .00000290  00000+0  99880-4 0  9990
2 21610  98.2392 224.0717 0003871 142.9658 217.1800 14.42638323780608
INTERCOSMOS 25          
1 21819U 91086A   25167.57371807  .00002093  00000+0  41500-3 0  9990
2 21819  82.6035 110.8127 1489920 330.2995  22.0927 12.11057887464467
SL-8 R/B                
1 21876U 92008B   25167.59635181  .00000097  00000+0  83970-4 0  9998
2 21876  82.9267 105.6740 0035167 155.6471  17.5230 13.75933751672821
SL-8 R/B                
1 21938U 92020B   25167.03754451  .00000143  00000+0  13281-3 0  9991
2 21938  82.9304 351.7978 0028239 324.4598 155.8799 13.75508947664470
USA 81                  
1 21949U 92023A   25167.55846989  .00000189  00000+0  62793-4 0  9994
2 21949  85.0076 284.9412 0002350 111.1857 248.9586 14.32245563 56690
COSMOS 2219             
1 22219U 92076A   25167.39792733 -.00000035  00000+0  66275-5 0  9993
2 22219  71.0584 214.7130 0020125 248.8388 111.0584 14.14022614680731
SL-16 R/B               
1 22220U 92076B   25167.34036616  .00000128  00000+0  87967-4 0  9993
2 22220  71.0007  29.4120 0011671 149.4259  23.4362 14.16805201684100
COSMOS 2221             
1 22236U 92080A   25167.60602112  .00001610  00000+0  14508-3 0  9991
2 22236  82.5038 173.6150 0014937  13.1603 347.0005 14.94887027741027
SL-16 R/B               
1 22285U 92093B   25167.37858059 -.00000253  00000+0 -10530-3 0  9991
2 22285  71.0201 203.3004 0005102 326.2447  33.8350 14.15396171675479
COSMOS 2228             
1 22286U 92094A   25167.31811543  .00001824  00000+0  16083-3 0  9996
2 22286  82.5177 132.0340 0020187 116.1773 244.1528 14.95721495736222
SL-16 R/B               
1 22566U 93016B   25167.10991832 -.00000236  00000+0 -96596-4 0  9995
2 22566  71.0081  55.0589 0010173 356.3681   3.7366 14.15257464664455
COSMOS 2242             
1 22626U 93024A   25167.39499077  .00001614  00000+0  14415-3 0  9994
2 22626  82.5184 161.0890 0018347 118.2567 242.0509 14.95173116740580
SL-16 R/B               
1 22803U 93059B   25167.38034254  .00000199  00000+0  12213-3 0  9991
2 22803  70.9891 212.6956 0019345 257.5868 102.3091 14.17175191641807
ARIANE 40 R/B           
1 22830U 93061H   25167.41562160  .00000196  00000+0  88072-4 0  9994
2 22830  98.5266 235.9968 0010525 359.1789   0.9376 14.32665266655978
COSMOS 2278             
1 23087U 94023A   25167.03218693  .00000377  00000+0  22194-3 0  9998
2 23087  71.0543  12.9613 0007079  72.9367 287.2531 14.14302799607103
SL-16 R/B               
1 23088U 94023B   25167.27294052 -.00000152  00000+0 -54035-4 0  9991
2 23088  70.9999 270.3633 0004463 313.6959  46.3794 14.14964369608401
SL-16 R/B               
1 23343U 94074B   25167.06396529  .00000416  00000+0  62919-4 0  9991
2 23343  97.7387 203.2651 0007029  21.9282   7.5169 14.79045310647839
SL-16 R/B               
1 23405U 94077B   25167.35841170 -.00000226  00000+0 -90870-4 0  9990
2 23405  70.9813 192.7776 0004328 239.1915 120.8782 14.15521496578545
ARIANE 40+ R/B          
1 23561U 95021B   25167.47647697  .00000272  00000+0  10110-3 0  9991
2 23561  98.4834 237.0306 0006153 209.9192 160.6378 14.39534622580949
SL-16 R/B               
1 23705U 95058B   25167.28149068  .00000060  00000+0  55023-4 0  9997
2 23705  71.0216  19.5563 0012351 175.2500 184.8743 14.15447957530153
SL-16 R/B               
1 24298U 96051B   25167.30893790 -.00000173  00000+0 -66908-4 0  9991
2 24298  70.7684  19.0042 0015526 176.8751 183.2468 14.12415231484034
ORBVIEW 2 (SEASTAR)     
1 24883U 97037A   25167.41090626  .00000255  00000+0  10536-3 0  9999
2 24883  98.8263 320.2047 0003250 114.5960 245.5564 14.35254923470276
SL-16 R/B               
1 25400U 98043G   25167.59411364  .00000056  00000+0  42196-4 0  9995
2 25400  98.7878 114.7014 0010909  68.7457 291.4887 14.25973192401067
SL-16 R/B               
1 25407U 98045B   25167.35228865  .00000212  00000+0  13142-3 0  9992
2 25407  71.0116  21.6547 0005523  65.1479 295.0218 14.16140588389395
ISS (ZARYA)             
1 25544U 98067A   25167.63573752  .00011754  00000+0  21179-3 0  9999
2 25544  51.6388 309.8053 0000950 248.3368 207.3878 15.50244021515076
CZ-4B R/B               
1 25732U 99025C   25167.39898624  .00000053  00000+0  46678-4 0  9996
2 25732  98.6992 212.4054 0037707  32.0364 339.3816 14.18192572350421
OKEAN-O                 
1 25860U 99039A   25167.48611071  .00000594  00000+0  85835-4 0  9990
2 25860  97.9832 224.4875 0001974  99.8149 260.3285 14.79807039395016
SL-16 R/B               
1 25861U 99039B   25167.38712335  .00000501  00000+0  71104-4 0  9997
2 25861  98.0358 221.2609 0015860  45.0997 315.1500 14.81285847397432
DELTA 2 R/B             
1 25876U 99041E   25167.59028019  .00000493  00000+0  11807-3 0  9991
2 25876  51.7661 283.1557 0506295 283.6865  70.8203 14.10742737325457
HELIOS 1B               
1 25977U 99064A   25167.45105210  .00001222  00000+0  14474-3 0  9996
2 25977  98.1953  56.7803 0001190 135.7991 224.3319 14.86491312645695
TERRA                   
1 25994U 99068A   25167.55741297  .00000398  00000+0  90860-4 0  9998
2 25994  97.9979 225.5417 0001253 338.9212 128.8607 14.60711347356220
SL-16 R/B               
1 26070U 00006B   25167.36942629 -.00000130  00000+0 -41603-4 0  9996
2 26070  71.0033 297.7895 0018296 232.1003 127.8466 14.15778536310864
TITAN 4B R/B            
1 26474U 00047B   25167.44488913  .00002752  00000+0  18691-3 0  9999
2 26474  67.9903  67.6897 0045217 334.0500  25.8380 15.07218999352766
ENVISAT                 
1 27386U 02009A   25167.38662058  .00000092  00000+0  43663-4 0  9992
2 27386  98.3337 122.9790 0001351  90.1043  80.5617 14.38921006220878
IDEFIX & ARIANE 42P R/B 
1 27422U 02021B   25167.28767418  .00000217  00000+0  99605-4 0  9998
2 27422  98.5611 104.5604 0010643 250.8285 109.1746 14.30795758205928
AQUA                    
1 27424U 02022A   25167.58954823  .00000803  00000+0  17257-3 0  9995
2 27424  98.3778 125.9324 0001997  68.6985 345.1406 14.61305943229863
CZ-4B R/B               
1 27432U 02024C   25167.11207722  .00000059  00000+0  53337-4 0  9997
2 27432  98.9230 216.2244 0051092  60.3720 327.0772 14.14486972191552
MIDORI II (ADEOS-II)    
1 27597U 02056A   25167.34217983  .00000275  00000+0  12632-3 0  9991
2 27597  98.7380 119.6657 0002154  71.0466 289.0949 14.29052052172256
H-2A R/B                
1 27601U 02056E   25167.39368081  .00000206  00000+0  87164-4 0  9995
2 27601  98.2790 133.6001 0069335 234.8055 279.3010 14.33512229175951
CZ-4B R/B               
1 28059U 03049C   25167.42633572  .00000326  00000+0  87076-4 0  9995
2 28059  98.6590 147.4158 0047776 325.5922  34.2183 14.54688779147880
CZ-2C R/B               
1 28222U 04012C   25167.13725092  .00014573  00000+0  31375-3 0  9994
2 28222  97.7654 206.4854 0023169 195.9455 164.1065 15.44446481162928
